NORAD_CAT_ID,OBJECT_NAME,OBJECT_TYPE,EPOCH,MEAN_MOTION,ECCENTRICITY,INCLINATION,RA_OF_ASC_NODE,ARG_OF_PERICENTER,MEAN_ANOMALY,BSTAR,MEAN_MOTION_DOT,MEAN_MOTION_DDOT,TLE_LINE0,TLE_LINE1,TLE_LINE2,SEMIMAJOR_AXIS,PERIOD,APOGEE,PERIGEE,DECAYED
49446.0,STARLINK-3099,PAYLOAD,2022-10-15 16:03:40,15.08830421,0.0001671,53.2176,20.287,44.5816,315.5311,3.1851e-05,2.19e-06,0.0,0 STARLINK-3099,1 49446U 21104AQ  22288.66922160  .00000219  00000-0  31851-4 0  9993,2 49446  53.2176  20.2870 0001671  44.5816 315.5311 15.08830421 52632,6917.91,95.438,540.931,538.619,0.0
49446.0,STARLINK-3099,PAYLOAD,2022-10-16 03:11:23,15.08822069,0.0001713,53.2182,18.2028,50.6652,309.4492,-7.5451e-05,-1.488e-05,0.0,0 STARLINK-3099,1 49446U 21104AQ  22289.13291030 -.00001488  00000-0 -75451-4 0  9996,2 49446  53.2182  18.2028 0001713  50.6652 309.4492 15.08822069 52703,6917.935,95.439,540.985,538.615,0.0
49446.0,STARLINK-3099,PAYLOAD,2022-10-16 12:43:42,15.08818172,0.0001607,53.2185,16.4183,55.3627,304.7516,-0.00012312,-2.246e-05,0.0,0 STARLINK-3099,1 49446U 21104AQ  22289.53035763 -.00002246  00000-0 -12312-3 0  9998,2 49446  53.2185  16.4183 0001607  55.3627 304.7516 15.08818172 51696,6917.946999999999,95.439,540.924,538.7,0.0
49446.0,STARLINK-3099,PAYLOAD,2022-10-17 12:34:29,15.08834872,0.0001693,53.218,11.9587,52.4651,307.6494,2.7147e-05,1.44e-06,0.0,0 STARLINK-3099,1 49446U 21104AQ  22290.52395099  .00000144  00000-0  27147-4 0  9996,2 49446  53.2180  11.9587 0001693  52.4651 307.6494 15.08834872 52917,6917.896,95.438,540.932,538.59,0.0
49446.0,STARLINK-3099,PAYLOAD,2022-10-18 12:25:16,15.08836298,0.0001821999999999,53.2181,7.4988,42.8641,317.2493,0.00020561,2.985e-05,0.0,0 STARLINK-3099,1 49446U 21104AQ  22291.51755150  .00002985  00000-0  20561-3 0  9991,2 49446  53.2181   7.4988 0001822  42.8641 317.2493 15.08836298 51996,6917.892,95.438,541.0169999999998,538.496,0.0
49446.0,STARLINK-3099,PAYLOAD,2022-10-18 14:00:39,15.08837129,0.0001899999999999,53.218,7.2003,41.1423,318.9712,0.00021831,3.188e-05,0.0,0 STARLINK-3099,1 49446U 21104AQ  22291.58379128  .00003188  00000-0  21831-3 0  9992,2 49446  53.2180   7.2003 0001900  41.1423 318.9712 15.08837129 53075,6917.889,95.438,541.069,538.44,0.0
49446.0,STARLINK-3099,PAYLOAD,2022-10-19 10:40:40,15.08845892,0.0001738,53.2182,3.3358,40.698,319.4142,0.00014605,2.037e-05,0.0,0 STARLINK-3099,1 49446U 21104AQ  22292.44490852  .00002037  00000-0  14605-3 0  9999,2 49446  53.2182   3.3358 0001738  40.6980 319.4142 15.08845892 52133,6917.861999999999,95.437,540.93,538.525,0.0
49446.0,STARLINK-3099,PAYLOAD,2022-10-19 13:51:26,15.08842404,0.0001678,53.2178,2.7403,48.6399,311.4737,0.00011335,1.516e-05,0.0,0 STARLINK-3099,1 49446U 21104AQ  22292.57739155  .00001516  00000-0  11335-3 0  9993,2 49446  53.2178   2.7403 0001678  48.6399 311.4737 15.08842404 52157,6917.873000000001,95.437,540.899,538.577,0.0
49446.0,STARLINK-3099,PAYLOAD,2022-10-20 02:34:31,15.08848809,0.0001728,53.2178,0.3612,45.3819,314.7314,8.876e-05,1.125e-05,0.0,0 STARLINK-3099,1 49446U 21104AQ  22293.10730463  .00001125  00000-0  88760-4 0  9999,2 49446  53.2178   0.3612 0001728  45.3819 314.7314 15.08848809 53300,6917.853,95.437,540.914,538.523,0.0
49446.0,STARLINK-3099,PAYLOAD,2022-10-20 10:31:27,15.08843973,0.0001513,53.2176,358.8737,48.9103,311.2019,2.3991e-05,9.4e-07,0.0,0 STARLINK-3099,1 49446U 21104AQ  22293.43850742  .00000094  00000-0  23991-4 0  9997,2 49446  53.2176 358.8737 0001513  48.9103 311.2019 15.08843973 53350,6917.868,95.437,540.78,538.687,0.0
49446.0,STARLINK-3099,PAYLOAD,2022-10-20 13:42:13,15.08843355,0.0001496,53.2176,358.2795,50.3564,309.756,3.667e-05,2.96e-06,0.0,0 STARLINK-3099,1 49446U 21104AQ  22293.57098706  .00000296  00000-0  36670-4 0  9998,2 49446  53.2176 358.2795 0001496  50.3564 309.7560 15.08843355 52307,6917.87,95.437,540.77,538.7,0.0
49446.0,STARLINK-3099,PAYLOAD,2022-10-21 10:22:13,15.08843855,0.0001754,53.2176,354.4145,44.2825,315.8307,-2.9264e-06,-3.35e-06,0.0,0 STARLINK-3099,1 49446U 21104AQ  22294.43210433 -.00000335  00000-0 -29264-5 0  9995,2 49446  53.2176 354.4145 0001754  44.2825 315.8307 15.08843855 52439,6917.869000000002,95.437,540.947,538.52,0.0
49446.0,STARLINK-3099,PAYLOAD,2022-10-22 03:51:27,15.08842564,0.0001839,53.218,351.1436,44.7781,315.336,7.6783e-05,9.34e-06,0.0,0 STARLINK-3099,1 49446U 21104AQ  22295.16073995  .00000934  00000-0  76783-4 0  9996,2 49446  53.2180 351.1436 0001839  44.7781 315.3360 15.08842564 53612,6917.873000000001,95.437,541.01,538.465,0.0
49446.0,STARLINK-3099,PAYLOAD,2022-10-22 10:13:00,15.08841693,0.0001949,53.218,349.954,41.3382,318.7757,6.0588e-05,6.76e-06,0.0,0 STARLINK-3099,1 49446U 21104AQ  22295.42570056  .00000676  00000-0  60588-4 0  9994,2 49446  53.2180 349.9540 0001949  41.3382 318.7757 15.08841693 52589,6917.875,95.437,541.089,538.3919999999998,0.0
49446.0,STARLINK-3099,PAYLOAD,2022-10-23 05:17:37,15.08849799,0.0001817,53.2179,346.3844,45.9409,314.1732,0.00010667,1.41e-05,0.0,0 STARLINK-3099,1 49446U 21104AQ  22296.22057250  .00001410  00000-0  10667-3 0  9998,2 49446  53.2179 346.3844 0001817  45.9409 314.1732 15.08849799 53779,6917.85,95.437,540.972,538.4580000000002,0.0
49446.0,STARLINK-3099,PAYLOAD,2022-10-23 10:03:46,15.08851858,0.0001735,53.2177,345.4909,52.0893,308.0256,0.00016101,2.276e-05,0.0,0 STARLINK-3099,1 49446U 21104AQ  22296.41928901  .00002276  00000-0  16101-3 0  9999,2 49446  53.2177 345.4909 0001735  52.0893 308.0256 15.08851858 52731,6917.844,95.437,540.909,538.509,0.0
49446.0,STARLINK-3099,PAYLOAD,2022-10-24 08:19:11,15.08836018,0.0001698,53.2175,341.3302,49.6263,310.4877,2.0076e-05,3.1e-07,0.0,0 STARLINK-3099,1 49446U 21104AQ  22297.34665636  .00000031  00000-0  20076-4 0  9999,2 49446  53.2175 341.3302 0001698  49.6263 310.4877 15.08836018 52874,6917.893,95.438,540.932,538.5830000000002,0.0
49446.0,STARLINK-3099,PAYLOAD,2022-10-25 01:48:27,15.08817577,0.0001657,53.2172,338.0584,49.8208,310.2929,-0.00020791,-3.593e-05,0.0,0 STARLINK-3099,1 49446U 21104AQ  22298.07532355 -.00003593  00000-0 -20791-3 0  9992,2 49446  53.2172 338.0584 0001657  49.8208 310.2929 15.08817577 54059,6917.949000000001,95.439,540.96,538.668,0.0
49446.0,STARLINK-3099,PAYLOAD,2022-10-25 09:45:23,15.08820708,0.0001901,53.2171,336.5733,42.3219,317.7920000000001,-0.00016132,-2.853e-05,0.0,0 STARLINK-3099,1 49446U 21104AQ  22298.40652491 -.00002853  00000-0 -16132-3 0  9995,2 49446  53.2171 336.5733 0001901  42.3219 317.7920 15.08820708 53039,6917.939,95.439,541.119,538.489,0.0
49446.0,STARLINK-3099,PAYLOAD,2022-10-25 19:17:42,15.08824684,0.0001716,53.2172,334.7887,46.7813,313.3323,-0.00011474,-2.113e-05,0.0,0 STARLINK-3099,1 49446U 21104AQ  22298.80396471 -.00002113  00000-0 -11474-3 0  9995,2 49446  53.2172 334.7887 0001716  46.7813 313.3323 15.08824684 53094,6917.927,95.439,540.979,538.605,0.0
49446.0,STARLINK-3099,PAYLOAD,2022-10-26 04:50:01,15.08823114,0.0001843,53.2174,333.0044,40.4583,319.6546,3.8248e-05,3.2e-06,0.0,0 STARLINK-3099,1 49446U 21104AQ  22299.20140548  .00000320  00000-0  38248-4 0  9997,2 49446  53.2174 333.0044 0001843  40.4583 319.6546 15.08823114 54228,6917.932,95.439,541.072,538.5219999999998,0.0
49446.0,STARLINK-3099,PAYLOAD,2022-10-26 09:36:10,15.088249800000002,0.000184,53.2173,332.1125,40.9576,319.1554,5.7322e-05,6.24e-06,0.0,0 STARLINK-3099,1 49446U 21104AQ  22299.40012648  .00000624  00000-0  57322-4 0  9999,2 49446  53.2173 332.1125 0001840  40.9576 319.1554 15.08824980 53181,6917.926,95.439,541.064,538.518,0.0
49446.0,STARLINK-3099,PAYLOAD,2022-10-27 04:40:48,15.0883376,0.0001954,53.2175,328.5437,37.3229,322.7899,0.00030336,4.542e-05,0.0,0 STARLINK-3099,1 49446U 21104AQ  22300.19500714  .00004542  00000-0  30336-3 0  9992,2 49446  53.2175 328.5437 0001954  37.3229 322.7899 15.08833760 54379,6917.899,95.438,541.116,538.413,0.0
49446.0,STARLINK-3099,PAYLOAD,2022-10-27 11:02:20,15.08842514,0.0001934,53.2173,327.3544,39.092,321.0212,0.0003891,5.91e-05,0.0,0 STARLINK-3099,1 49446U 21104AQ  22300.45996486  .00005910  00000-0  38910-3 0  9992,2 49446  53.2173 327.3544 0001934  39.0920 321.0212 15.08842514 53342,6917.873000000001,95.437,541.076,538.4,0.0
49446.0,STARLINK-3099,PAYLOAD,2022-10-27 18:59:16,15.08856248,0.0001991,53.2164,325.8674,39.4527,320.661,0.00050187,7.712e-05,0.0,0 STARLINK-3099,1 49446U 21104AQ  22300.79116174  .00007712  00000-0  50187-3 0  9999,2 49446  53.2164 325.8674 0001991  39.4527 320.6610 15.08856248 54469,6917.831,95.437,541.073,538.318,0.0
49446.0,STARLINK-3099,PAYLOAD,2022-10-28 09:17:43,15.08858851,0.0001901,53.216,323.1911,36.8761,323.2362,0.00028283,4.218e-05,0.0,0 STARLINK-3099,1 49446U 21104AQ  22301.38731442  .00004218  00000-0  28283-3 0  9996,2 49446  53.2160 323.1911 0001901  36.8761 323.2362 15.08858851 53488,6917.823,95.436,541.003,538.373,0.0
49446.0,STARLINK-3099,PAYLOAD,2022-10-28 18:50:02,15.08858831,0.0002148,53.2158,321.407,38.1679,321.9465,0.00020575,2.989e-05,0.0,0 STARLINK-3099,1 49446U 21104AQ  22301.78475167  .00002989  00000-0  20575-3 0  9998,2 49446  53.2158 321.4070 0002148  38.1679 321.9465 15.08858831 54612,6917.823,95.436,541.174,538.202,0.0
49446.0,STARLINK-3099,PAYLOAD,2022-10-29 07:33:07,15.08858261,0.0002102,53.2158,319.0282,37.9269,322.187,8.271799999999999e-05,1.029e-05,0.0,0 STARLINK-3099,1 49446U 21104AQ  22302.31466494  .00001029  00000-0  82718-4 0  9993,2 49446  53.2158 319.0282 0002102  37.9269 322.1870 15.08858261 53622,6917.825,95.436,541.144,538.235,0.0
49446.0,STARLINK-3099,PAYLOAD,2022-10-29 20:16:12,15.0884563,0.0002072,53.2167,316.6495,37.2244,322.8891,-0.00014442,-2.586e-05,0.0,0 STARLINK-3099,1 49446U 21104AQ  22302.84458785 -.00002586  00000-0 -14442-3 0  9994,2 49446  53.2167 316.6495 0002072  37.2244 322.8891 15.08845630 54776,6917.863,95.437,541.1619999999998,538.295,0.0
